{
  "type": "FeatureCollection",
  "features": [
    {
      "type": "Feature",
      "properties": {
        "norad_id": 31463,
        "name": "FENGYUN 1C DEB",
        "group": "fengyun-1c-debris",
        "lat": 8.950233560907662,
        "lon": 156.45953821760926,
        "alt_km": 900.5253087210349,
        "timestamp": "2025-12-18T23:35:49.343172+00:00",
        "meta_object_name": "FENGYUN 1C DEB",
        "meta_object_id": "1999-025BVB",
        "meta_epoch": "2025-12-17T05:02:14.245440",
        "meta_mean_motion": 14.36964853,
        "meta_eccentricity": 0.02135653,
        "meta_inclination": 99.0801,
        "meta_ra_of_asc_node": 333.1449,
        "meta_arg_of_pericenter": 26.7734,
        "meta_mean_anomaly": 334.4288,
        "meta_ephemeris_type": 0,
        "meta_classification_type": "U",
        "meta_norad_cat_id": 31463,
        "meta_element_set_no": 999,
        "meta_rev_at_epoch": 64784,
        "meta_bstar": 0.00042071423,
        "meta_mean_motion_dot": 1.563e-05,
        "meta_mean_motion_ddot": 0,
        "tle_line1": "1 31463U 99025BVB 25351.20988710  .00001563  00000+0  42071-3 0  9994",
        "tle_line2": "2 31463  99.0801 333.1449 0213565  26.7734 334.4288 14.36964853647844"
      },
      "geometry": {
        "type": "Point",
        "coordinates": [
          156.45953821760926,
          8.950233560907662
        ]
      }
    },
    {
      "type": "Feature",
      "properties": {
        "norad_id": 31464,
        "name": "FENGYUN 1C DEB",
        "group": "fengyun-1c-debris",
        "lat": -40.76916303258101,
        "lon": 47.32230351293317,
        "alt_km": 859.6670343577362,
        "timestamp": "2025-12-18T23:35:49.343183+00:00",
        "meta_object_name": "FENGYUN 1C DEB",
        "meta_object_id": "1999-025BVC",
        "meta_epoch": "2025-12-17T21:26:19.859424",
        "meta_mean_motion": 14.12482358,
        "meta_eccentricity": 0.00433522,
        "meta_inclination": 98.7942,
        "meta_ra_of_asc_node": 38.5822,
        "meta_arg_of_pericenter": 227.3881,
        "meta_mean_anomaly": 311.7438,
        "meta_ephemeris_type": 0,
        "meta_classification_type": "U",
        "meta_norad_cat_id": 31464,
        "meta_element_set_no": 999,
        "meta_rev_at_epoch": 94752,
        "meta_bstar": 0.00027806813,
        "meta_mean_motion_dot": 4.74e-06,
        "meta_mean_motion_ddot": 0,
        "tle_line1": "1 31464U 99025BVC 25351.89328541  .00000474  00000+0  27807-3 0  9990",
        "tle_line2": "2 31464  98.7942  38.5822 0043352 227.3881 311.7438 14.12482358947527"
      },
      "geometry": {
        "type": "Point",
        "coordinates": [
          47.32230351293317,
          -40.76916303258101
        ]
      }
    },
    {
      "type": "Feature",
      "properties": {
        "norad_id": 31466,
        "name": "FENGYUN 1C DEB",
        "group": "fengyun-1c-debris",
        "lat": -10.036008144482196,
        "lon": -75.27925525165989,
        "alt_km": 718.3815708815346,
        "timestamp": "2025-12-18T23:35:49.343193+00:00",
        "meta_object_name": "FENGYUN 1C DEB",
        "meta_object_id": "1999-025BVE",
        "meta_epoch": "2025-12-16T02:14:17.384928",
        "meta_mean_motion": 14.1852535,
        "meta_eccentricity": 0.02990788,
        "meta_inclination": 99.0889,
        "meta_ra_of_asc_node": 280.1326,
        "meta_arg_of_pericenter": 299.2838,
        "meta_mean_anomaly": 57.8749,
        "meta_ephemeris_type": 0,
        "meta_classification_type": "U",
        "meta_norad_cat_id": 31466,
        "meta_element_set_no": 999,
        "meta_rev_at_epoch": 96376,
        "meta_bstar": 0.00020920335,
        "meta_mean_motion_dot": 6.16e-06,
        "meta_mean_motion_ddot": 0,
        "tle_line1": "1 31466U 99025BVE 25350.09325677  .00000616  00000+0  20920-3 0  9997",
        "tle_line2": "2 31466  99.0889 280.1326 0299078 299.2838  57.8749 14.18525350963768"
      },
      "geometry": {
        "type": "Point",
        "coordinates": [
          -75.27925525165989,
          -10.036008144482196
        ]
      }
    },
    {
      "type": "Feature",
      "properties": {
        "norad_id": 31468,
        "name": "FENGYUN 1C DEB",
        "group": "fengyun-1c-debris",
        "lat": -22.285286758790765,
        "lon": -7.758663666970434,
        "alt_km": 858.8268518470486,
        "timestamp": "2025-12-18T23:35:49.343203+00:00",
        "meta_object_name": "FENGYUN 1C DEB",
        "meta_object_id": "1999-025BVG",
        "meta_epoch": "2025-12-15T17:40:52.277088",
        "meta_mean_motion": 14.46598121,
        "meta_eccentricity": 0.01665536,
        "meta_inclination": 98.1678,
        "meta_ra_of_asc_node": 345.7354,
        "meta_arg_of_pericenter": 157.6429,
        "meta_mean_anomaly": 203.2135,
        "meta_ephemeris_type": 0,
        "meta_classification_type": "U",
        "meta_norad_cat_id": 31468,
        "meta_element_set_no": 999,
        "meta_rev_at_epoch": 67415,
        "meta_bstar": 0.00027310227,
        "meta_mean_motion_dot": 1.122e-05,
        "meta_mean_motion_ddot": 0,
        "tle_line1": "1 31468U 99025BVG 25349.73671617  .00001122  00000+0  27310-3 0  9999",
        "tle_line2": "2 31468  98.1678 345.7354 0166553 157.6429 203.2135 14.46598121674154"
      },
      "geometry": {
        "type": "Point",
        "coordinates": [
          -7.758663666970434,
          -22.285286758790765
        ]
      }
    },
    {
      "type": "Feature",
      "properties": {
        "norad_id": 31473,
        "name": "FENGYUN 1C DEB",
        "group": "fengyun-1c-debris",
        "lat": 67.60523039096704,
        "lon": -132.66893439852933,
        "alt_km": 804.5630048523963,
        "timestamp": "2025-12-18T23:35:49.343213+00:00",
        "meta_object_name": "FENGYUN 1C DEB",
        "meta_object_id": "1999-025BVM",
        "meta_epoch": "2025-12-18T08:16:29.356608",
        "meta_mean_motion": 14.29825318,
        "meta_eccentricity": 0.00646146,
        "meta_inclination": 98.5456,
        "meta_ra_of_asc_node": 25.3032,
        "meta_arg_of_pericenter": 358.2526,
        "meta_mean_anomaly": 67.4688,
        "meta_ephemeris_type": 0,
        "meta_classification_type": "U",
        "meta_norad_cat_id": 31473,
        "meta_element_set_no": 999,
        "meta_rev_at_epoch": 69601,
        "meta_bstar": 0.0011635199,
        "meta_mean_motion_dot": 3.017e-05,
        "meta_mean_motion_ddot": 0,
        "tle_line1": "1 31473U 99025BVM 25352.34478422  .00003017  00000+0  11635-2 0  9992",
        "tle_line2": "2 31473  98.5456  25.3032 0064614 358.2526  67.4688 14.29825318696018"
      },
      "geometry": {
        "type": "Point",
        "coordinates": [
          -132.66893439852933,
          67.60523039096704
        ]
      }
    },
    {
      "type": "Feature",
      "properties": {
        "norad_id": 31474,
        "name": "FENGYUN 1C DEB",
        "group": "fengyun-1c-debris",
        "lat": -35.330315398504105,
        "lon": 45.5053554598339,
        "alt_km": 900.2081649420661,
        "timestamp": "2025-12-18T23:35:49.343223+00:00",
        "meta_object_name": "FENGYUN 1C DEB",
        "meta_object_id": "1999-025BVN",
        "meta_epoch": "2025-12-17T20:31:53.420160",
        "meta_mean_motion": 14.10616871,
        "meta_eccentricity": 0.00720818,
        "meta_inclination": 99.1448,
        "meta_ra_of_asc_node": 37.8022,
        "meta_arg_of_pericenter": 192.292,
        "meta_mean_anomaly": 167.6494,
        "meta_ephemeris_type": 0,
        "meta_classification_type": "U",
        "meta_norad_cat_id": 31474,
        "meta_element_set_no": 999,
        "meta_rev_at_epoch": 95042,
        "meta_bstar": 0.0012018353,
        "meta_mean_motion_dot": 2.151e-05,
        "meta_mean_motion_ddot": 0,
        "tle_line1": "1 31474U 99025BVN 25351.85547940  .00002151  00000+0  12018-2 0  9994",
        "tle_line2": "2 31474  99.1448  37.8022 0072081 192.2920 167.6494 14.10616871950423"
      },
      "geometry": {
        "type": "Point",
        "coordinates": [
          45.5053554598339,
          -35.330315398504105
        ]
      }
    },
    {
      "type": "Feature",
      "properties": {
        "norad_id": 31475,
        "name": "FENGYUN 1C DEB",
        "group": "fengyun-1c-debris",
        "lat": -0.9898082686883592,
        "lon": 61.77986569176527,
        "alt_km": 769.8549865822379,
        "timestamp": "2025-12-18T23:35:49.343234+00:00",
        "meta_object_name": "FENGYUN 1C DEB",
        "meta_object_id": "1999-025BVP",
        "meta_epoch": "2025-12-17T11:43:04.748160",
        "meta_mean_motion": 14.38222265,
        "meta_eccentricity": 0.02117672,
        "meta_inclination": 98.9397,
        "meta_ra_of_asc_node": 240.3791,
        "meta_arg_of_pericenter": 93.1559,
        "meta_mean_anomaly": 269.3879,
        "meta_ephemeris_type": 0,
        "meta_classification_type": "U",
        "meta_norad_cat_id": 31475,
        "meta_element_set_no": 999,
        "meta_rev_at_epoch": 96147,
        "meta_bstar": 0.00046650595,
        "meta_mean_motion_dot": 1.785e-05,
        "meta_mean_motion_ddot": 0,
        "tle_line1": "1 31475U 99025BVP 25351.48824940  .00001785  00000+0  46651-3 0  9995",
        "tle_line2": "2 31475  98.9397 240.3791 0211767  93.1559 269.3879 14.38222265961475"
      },
      "geometry": {
        "type": "Point",
        "coordinates": [
          61.77986569176527,
          -0.9898082686883592
        ]
      }
    }
  ]
}